CALSPHERE 1             
1 00900U 64063C   21341.44343038  .00000312  00000+0  32398-3 0  9991
2 00900  90.1697  37.4638 0026209 235.6400 135.1946 13.73635045844308
CALSPHERE 2             
1 00902U 64063E   21340.93320103  .00000048  00000+0  58788-4 0  9992
2 00902  90.1832  40.4050 0017924 352.9100 180.7560 13.52703034632749
LCS 1                   
1 01361U 65034C   21340.85390488 -.00000012  00000+0 -27071-2 0  9997
2 01361  32.1366 142.5812 0013298 275.8233  84.0749  9.89300756 46155
TEMPSAT 1               
1 01512U 65065E   21341.16175360  .00000041  00000+0  63541-4 0  9998
2 01512  89.9047 220.3528 0068942 209.3382 304.9193 13.33442540739744
CALSPHERE 4A            
1 01520U 65065H   21340.94077679  .00000060  00000+0  97919-4 0  9993
2 01520  90.0026 130.1764 0071100  86.4961  30.5747 13.35861098741958
OPS 5712 (P/L 160)      
1 02826U 67053A   21340.88313532  .00000858  00000+0  23811-3 0  9990
2 02826  69.9287  20.5632 0010932 265.5436  94.4448 14.49823382824815
OPS 5712 (P/L 153)      
1 02874U 67053H   21340.95150224 -.00000010  00000+0  31675-4 0  9997
2 02874  69.9752  57.4619 0008109 204.7275 155.3443 13.96382087776437
SURCAL 150B             
1 02909U 67053J   21340.90136017  .00001302  00000+0  26818-3 0  9991
2 02909  69.9483  19.1540 0008770 282.8945  77.1216 14.62794874835441
RIGIDSPHERE 2 (LCS 4)   
1 05398U 71067E   21340.90909027  .00000257  00000+0  83957-4 0  9991
2 05398  87.6221  76.1271 0061321 301.3060  58.2142 14.34068766636667
COSMOS 2493 (SKRL-756 1)
1 39490U 13078A   21341.47609490  .00000453  00000+0  45484-4 0  9994
2 39490  82.4200  58.1001 0017590  18.8195 341.3669 14.88946788431454
COSMOS 2494 (SKRL-756 2)
1 39491U 13078B   21341.43284100  .00000473  00000+0  45932-4 0  9998
2 39491  82.4200  52.3326 0021624 355.5279   4.5743 14.90353861431737
